[{"OBJECT_NAME":"JY1SAT (JO-97)","OBJECT_ID":"2018-099AX","EPOCH":"2026-03-09T16:28:19.890048","MEAN_MOTION":15.30302629,"ECCENTRICITY":0.00047232,"INCLINATION":97.4249,"RA_OF_ASC_NODE":131.3625,"ARG_OF_PERICENTER":256.6795,"MEAN_ANOMALY":103.3919,"EPHEMERIS_TYPE":0,"CLASSIFICATION_TYPE":"U","NORAD_CAT_ID":43803,"ELEMENT_SET_NO":999,"REV_AT_EPOCH":39839,"BSTAR":0.00060804308,"MEAN_MOTION_DOT":0.00017774,"MEAN_MOTION_DDOT":0},{"OBJECT_NAME":"STARLINK-31270","OBJECT_ID":"2024-044C","EPOCH":"2026-03-09T10:07:31.782432","MEAN_MOTION":15.27567119,"ECCENTRICITY":7.702e-5,"INCLINATION":43.0016,"RA_OF_ASC_NODE":108.6228,"ARG_OF_PERICENTER":219.3412,"MEAN_ANOMALY":140.7384,"EPHEMERIS_TYPE":0,"CLASSIFICATION_TYPE":"U","NORAD_CAT_ID":59154,"ELEMENT_SET_NO":999,"REV_AT_EPOCH":11355,"BSTAR":-6.606363e-5,"MEAN_MOTION_DOT":-2.079e-5,"MEAN_MOTION_DDOT":0}]
